CCSDS_OMM_VERS = 2.0
CREATION_DATE  = 
ORIGINATOR     = 

OBJECT_NAME    = AQUA
OBJECT_ID      = 2002-022A
CENTER_NAME    = EARTH
REF_FRAME      = TEME
TIME_SYSTEM    = UTC
MEAN_ELEMENT_THEORY = SGP/SGP4

EPOCH          = 2026-03-28T12:22:06.031776
MEAN_MOTION    = 14.62018997
ECCENTRICITY   = .0001119
INCLINATION    = 98.4205
RA_OF_ASC_NODE = 55.2277
ARG_OF_PERICENTER = 118.0194
MEAN_ANOMALY   = 354.6730

EPHEMERIS_TYPE = 0
CLASSIFICATION_TYPE = U
NORAD_CAT_ID   = 27424
ELEMENT_SET_NO = 999
REV_AT_EPOCH   = 27148
BSTAR          = .21938E-3
MEAN_MOTION_DOT = .1051E-4
MEAN_MOTION_DDOT = 0

CCSDS_OMM_VERS = 2.0
CREATION_DATE  = 
ORIGINATOR     = 

OBJECT_NAME    = CZ-4B R/B
OBJECT_ID      = 2002-024C
CENTER_NAME    = EARTH
REF_FRAME      = TEME
TIME_SYSTEM    = UTC
MEAN_ELEMENT_THEORY = SGP/SGP4

EPOCH          = 2026-03-28T09:11:01.949280
MEAN_MOTION    = 14.14550919
ECCENTRICITY   = .0049533
INCLINATION    = 98.8799
RA_OF_ASC_NODE = 140.6919
ARG_OF_PERICENTER = 330.9870
MEAN_ANOMALY   = 39.6160

EPHEMERIS_TYPE = 0
CLASSIFICATION_TYPE = U
NORAD_CAT_ID   = 27432
ELEMENT_SET_NO = 999
REV_AT_EPOCH   = 23188
BSTAR          = .43408E-4
MEAN_MOTION_DOT = .39E-6
MEAN_MOTION_DDOT = 0

CCSDS_OMM_VERS = 2.0
CREATION_DATE  = 
ORIGINATOR     = 

OBJECT_NAME    = MIDORI II (ADEOS-II)
OBJECT_ID      = 2002-056A
CENTER_NAME    = EARTH
REF_FRAME      = TEME
TIME_SYSTEM    = UTC
MEAN_ELEMENT_THEORY = SGP/SGP4

EPOCH          = 2026-03-28T11:52:37.744320
MEAN_MOTION    = 14.29298936
ECCENTRICITY   = .0000759
INCLINATION    = 98.7800
RA_OF_ASC_NODE = 46.1062
ARG_OF_PERICENTER = 19.4363
MEAN_ANOMALY   = 340.6847

EPHEMERIS_TYPE = 0
CLASSIFICATION_TYPE = U
NORAD_CAT_ID   = 27597
ELEMENT_SET_NO = 999
REV_AT_EPOCH   = 21298
BSTAR          = .14564E-3
MEAN_MOTION_DOT = .325E-5
MEAN_MOTION_DDOT = 0

CCSDS_OMM_VERS = 2.0
CREATION_DATE  = 
ORIGINATOR     = 

OBJECT_NAME    = H-2A R/B
OBJECT_ID      = 2002-056E
CENTER_NAME    = EARTH
REF_FRAME      = TEME
TIME_SYSTEM    = UTC
MEAN_ELEMENT_THEORY = SGP/SGP4

EPOCH          = 2026-03-28T11:45:03.840192
MEAN_MOTION    = 14.33773015
ECCENTRICITY   = .0071355
INCLINATION    = 98.3234
RA_OF_ASC_NODE = 47.1431
ARG_OF_PERICENTER = 105.2825
MEAN_ANOMALY   = 5.8492

EPHEMERIS_TYPE = 0
CLASSIFICATION_TYPE = U
NORAD_CAT_ID   = 27601
ELEMENT_SET_NO = 999
REV_AT_EPOCH   = 21680
BSTAR          = .12532E-3
MEAN_MOTION_DOT = .317E-5
MEAN_MOTION_DDOT = 0

CCSDS_OMM_VERS = 2.0
CREATION_DATE  = 
ORIGINATOR     = 

OBJECT_NAME    = CZ-4B R/B
OBJECT_ID      = 2003-049C
CENTER_NAME    = EARTH
REF_FRAME      = TEME
TIME_SYSTEM    = UTC
MEAN_ELEMENT_THEORY = SGP/SGP4

EPOCH          = 2026-03-28T12:01:18.003648
MEAN_MOTION    = 14.55036699
ECCENTRICITY   = .0048259
INCLINATION    = 98.6892
RA_OF_ASC_NODE = 83.1462
ARG_OF_PERICENTER = 172.9443
MEAN_ANOMALY   = 187.2442

EPHEMERIS_TYPE = 0
CLASSIFICATION_TYPE = U
NORAD_CAT_ID   = 28059
ELEMENT_SET_NO = 999
REV_AT_EPOCH   = 18933
BSTAR          = .97136E-4
MEAN_MOTION_DOT = .374E-5
MEAN_MOTION_DDOT = 0

CCSDS_OMM_VERS = 2.0
CREATION_DATE  = 
ORIGINATOR     = 

OBJECT_NAME    = CZ-2C R/B
OBJECT_ID      = 2004-012C
CENTER_NAME    = EARTH
REF_FRAME      = TEME
TIME_SYSTEM    = UTC
MEAN_ELEMENT_THEORY = SGP/SGP4

EPOCH          = 2026-03-28T03:27:59.050080
MEAN_MOTION    = 15.66741264
ECCENTRICITY   = .00132932
INCLINATION    = 97.7185
RA_OF_ASC_NODE = 154.2126
ARG_OF_PERICENTER = 235.4780
MEAN_ANOMALY   = 124.5225

EPHEMERIS_TYPE = 0
CLASSIFICATION_TYPE = U
NORAD_CAT_ID   = 28222
ELEMENT_SET_NO = 999
REV_AT_EPOCH   = 20716
BSTAR          = .60221314E-3
MEAN_MOTION_DOT = .6383E-3
MEAN_MOTION_DDOT = 0

CCSDS_OMM_VERS = 2.0
CREATION_DATE  = 
ORIGINATOR     = 

OBJECT_NAME    = SL-16 R/B
OBJECT_ID      = 2004-021B
CENTER_NAME    = EARTH
REF_FRAME      = TEME
TIME_SYSTEM    = UTC
MEAN_ELEMENT_THEORY = SGP/SGP4

EPOCH          = 2026-03-28T13:11:11.558112
MEAN_MOTION    = 14.14594754
ECCENTRICITY   = .0004956
INCLINATION    = 71.0008
RA_OF_ASC_NODE = 192.9144
ARG_OF_PERICENTER = 346.6717
MEAN_ANOMALY   = 13.4274

EPHEMERIS_TYPE = 0
CLASSIFICATION_TYPE = U
NORAD_CAT_ID   = 28353
ELEMENT_SET_NO = 999
REV_AT_EPOCH   = 12550
BSTAR          = .11854E-3
MEAN_MOTION_DOT = .18E-5
MEAN_MOTION_DDOT = 0

CCSDS_OMM_VERS = 2.0
CREATION_DATE  = 
ORIGINATOR     = 

OBJECT_NAME    = CZ-4B R/B
OBJECT_ID      = 2004-035C
CENTER_NAME    = EARTH
REF_FRAME      = TEME
TIME_SYSTEM    = UTC
MEAN_ELEMENT_THEORY = SGP/SGP4

EPOCH          = 2026-03-28T08:40:58.846944
MEAN_MOTION    = 15.29381585
ECCENTRICITY   = .0029999
INCLINATION    = 97.3474
RA_OF_ASC_NODE = 121.3818
ARG_OF_PERICENTER = 261.6668
MEAN_ANOMALY   = 98.1171

EPHEMERIS_TYPE = 0
CLASSIFICATION_TYPE = U
NORAD_CAT_ID   = 28415
ELEMENT_SET_NO = 999
REV_AT_EPOCH   = 18276
BSTAR          = .32035E-3
MEAN_MOTION_DOT = .9176E-4
MEAN_MOTION_DDOT = 0

CCSDS_OMM_VERS = 2.0
CREATION_DATE  = 
ORIGINATOR     = 

OBJECT_NAME    = CZ-2C R/B
OBJECT_ID      = 2004-046B
CENTER_NAME    = EARTH
REF_FRAME      = TEME
TIME_SYSTEM    = UTC
MEAN_ELEMENT_THEORY = SGP/SGP4

EPOCH          = 2026-03-28T08:20:15.908640
MEAN_MOTION    = 14.26998585
ECCENTRICITY   = .0140593
INCLINATION    = 98.1977
RA_OF_ASC_NODE = 1.1690
ARG_OF_PERICENTER = 99.6174
MEAN_ANOMALY   = 262.0924

EPHEMERIS_TYPE = 0
CLASSIFICATION_TYPE = U
NORAD_CAT_ID   = 28480
ELEMENT_SET_NO = 999
REV_AT_EPOCH   = 11116
BSTAR          = .6583E-4
MEAN_MOTION_DOT = .138E-5
MEAN_MOTION_DDOT = 0

CCSDS_OMM_VERS = 2.0
CREATION_DATE  = 
ORIGINATOR     = 

OBJECT_NAME    = ARIANE 5 R/B
OBJECT_ID      = 2004-049H
CENTER_NAME    = EARTH
REF_FRAME      = TEME
TIME_SYSTEM    = UTC
MEAN_ELEMENT_THEORY = SGP/SGP4

EPOCH          = 2026-03-28T10:16:37.953120
MEAN_MOTION    = 14.85299028
ECCENTRICITY   = .0082932
INCLINATION    = 98.2656
RA_OF_ASC_NODE = 256.5905
ARG_OF_PERICENTER = 290.6503
MEAN_ANOMALY   = 68.5833

EPHEMERIS_TYPE = 0
CLASSIFICATION_TYPE = U
NORAD_CAT_ID   = 28499
ELEMENT_SET_NO = 999
REV_AT_EPOCH   = 14857
BSTAR          = .10456E-3
MEAN_MOTION_DOT = .889E-5
MEAN_MOTION_DDOT = 0

CCSDS_OMM_VERS = 2.0
CREATION_DATE  = 
ORIGINATOR     = 

OBJECT_NAME    = CZ-2D R/B
OBJECT_ID      = 2005-024B
CENTER_NAME    = EARTH
REF_FRAME      = TEME
TIME_SYSTEM    = UTC
MEAN_ELEMENT_THEORY = SGP/SGP4

EPOCH          = 2026-03-28T11:48:18.298944
MEAN_MOTION    = 15.61848764
ECCENTRICITY   = .0002438
INCLINATION    = 97.3581
RA_OF_ASC_NODE = 103.3508
ARG_OF_PERICENTER = 340.8411
MEAN_ANOMALY   = 19.2754

EPHEMERIS_TYPE = 0
CLASSIFICATION_TYPE = U
NORAD_CAT_ID   = 28738
ELEMENT_SET_NO = 999
REV_AT_EPOCH   = 14271
BSTAR          = .57362E-3
MEAN_MOTION_DOT = .4984E-3
MEAN_MOTION_DDOT = 0

CCSDS_OMM_VERS = 2.0
CREATION_DATE  = 
ORIGINATOR     = 

OBJECT_NAME    = ALOS (DAICHI)
OBJECT_ID      = 2006-002A
CENTER_NAME    = EARTH
REF_FRAME      = TEME
TIME_SYSTEM    = UTC
MEAN_ELEMENT_THEORY = SGP/SGP4

EPOCH          = 2026-03-28T10:16:12.730368
MEAN_MOTION    = 14.69865987
ECCENTRICITY   = .0000864
INCLINATION    = 98.1247
RA_OF_ASC_NODE = 43.2937
ARG_OF_PERICENTER = 106.4422
MEAN_ANOMALY   = 253.6879

EPHEMERIS_TYPE = 0
CLASSIFICATION_TYPE = U
NORAD_CAT_ID   = 28931
ELEMENT_SET_NO = 999
REV_AT_EPOCH   = 7623
BSTAR          = .24883E-3
MEAN_MOTION_DOT = .1438E-4
MEAN_MOTION_DDOT = 0

