AQUA                    
1 27424U 02022A   26087.51534759  .00001051  00000+0  21938-3 0  9999
2 27424  98.4205  55.2277 0001119 118.0194 354.6730 14.62018997271480
CZ-4B R/B               
1 27432U 02024C   26087.38266145  .00000039  00000+0  43408-4 0  9998
2 27432  98.8799 140.6919 0049533 330.9870  39.6160 14.14550919231880
MIDORI II (ADEOS-II)    
1 27597U 02056A   26087.49488130  .00000325  00000+0  14564-3 0  9995
2 27597  98.7800  46.1062 0000759  19.4363 340.6847 14.29298936212987
H-2A R/B                
1 27601U 02056E   26087.48962778  .00000317  00000+0  12532-3 0  9999
2 27601  98.3234  47.1431 0071355 105.2825   5.8492 14.33773015216800
CZ-4B R/B               
1 28059U 03049C   26087.50090282  .00000374  00000+0  97136-4 0  9992
2 28059  98.6892  83.1462 0048259 172.9443 187.2442 14.55036699189330
CZ-2C R/B               
1 28222U 04012C   26087.14443345  .00063830  00000+0  60221-3 0  9997
2 28222  97.7185 154.2126 0013293 235.4780 124.5225 15.66741264207162
SL-16 R/B               
1 28353U 04021B   26087.54943933  .00000180  00000+0  11854-3 0  9991
2 28353  71.0008 192.9144 0004956 346.6717  13.4274 14.14594754125505
CZ-4B R/B               
1 28415U 04035C   26087.36179221  .00009176  00000+0  32035-3 0  9994
2 28415  97.3474 121.3818 0029999 261.6668  98.1171 15.29381585182761
CZ-2C R/B               
1 28480U 04046B   26087.34740635  .00000138  00000+0  65830-4 0  9998
2 28480  98.1977   1.1690 0140593  99.6174 262.0924 14.26998585111162
ARIANE 5 R/B            
1 28499U 04049H   26087.42821705  .00000889  00000+0  10456-3 0  9994
2 28499  98.2656 256.5905 0082932 290.6503  68.5833 14.85299028148577
CZ-2D R/B               
1 28738U 05024B   26087.49187846  .00049840  00000+0  57362-3 0  9999
2 28738  97.3581 103.3508 0002438 340.8411  19.2754 15.61848764142714
ALOS (DAICHI)           
1 28931U 06002A   26087.42792512  .00001438  00000+0  24883-3 0  9999
2 28931  98.1247  43.2937 0000864 106.4422 253.6879 14.69865987 76232
